54679,ONEWEB-0685,2022,108.94,148.0,+,87.93,Active,1,LEO,USA,UK,Commercial,Communications,Falcon,1 54679U 22166AP  24244.62137288  .00000164  00000+0  36549-3 0  9991,2 54679  87.9339  14.3040 0001670  90.6831 269.4495 13.21828628 85413,13.21828628,0.000167,LEO
54680,ONEWEB-0712,2022,109.33,148.0,+,87.92,Active,1,LEO,USA,UK,Commercial,Communications,Falcon,1 54680U 22166AQ  24244.58477808  .00000036  00000+0  61038-4 0  9993,2 54680  87.9163 359.1207 0001731 114.0673 246.0639 13.17111089 86387,13.17111089,0.0001731,LEO
54681,ONEWEB-0714,2022,108.94,148.0,+,87.93,Active,1,LEO,USA,UK,Commercial,Communications,Falcon,1 54681U 22166AR  24244.93048064  .00000053  00000+0  97741-4 0  9990,2 54681  87.9343  14.2304 0001645  90.2122 269.9200 13.21823010 85109,13.2182301,0.0001645,LEO
55140,ONEWEB-0532,2023,109.29,148.0,+,87.92,Active,1,LEO,USA,UK,Commercial,Communications,Falcon,1 55140U 23004A   24244.46320791  .00000083  00000+0  18158-3 0  9998,2 55140  87.9163 136.2667 0002396  74.2101 285.9294 13.17648513 81363,13.17648513,0.0002396,LEO
55141,ONEWEB-0533,2023,109.72,148.0,+,87.89,Active,1,LEO,USA,UK,Commercial,Communications,Falcon,1 55141U 23004B   24244.96135675  .00000418  00000+0  11262-2 0  9999,2 55141  87.8909 120.9468 0001668  72.6729 287.4582 13.12443072 82242,13.12443072,0.0001668,LEO
55142,ONEWEB-0541,2023,109.8,148.0,+,87.9,Active,1,LEO,USA,UK,Commercial,Communications,Falcon,1 55142U 23004C   24245.16638068  .00000529  00000+0  14565-2 0  9999,2 55142  87.8989 151.2878 0001998  74.5402 285.5947 13.11413219 80238,13.11413219,0.0001998,LEO
55143,ONEWEB-0543,2023,109.2,148.0,+,87.91,Active,1,LEO,USA,UK,Commercial,Communications,Falcon,1 55143U 23004D   24244.88119054  .00000088  00000+0  19156-3 0  9999,2 55143  87.9078 105.7993 0001404  82.8890 277.2401 13.18684922 83465,13.18684922,0.0001404,LEO
55144,ONEWEB-0544,2023,109.2,148.0,+,87.91,Active,1,LEO,USA,UK,Commercial,Communications,Falcon,1 55144U 23004E   24244.87486088  .00000136  00000+0  31327-3 0  9991,2 55144  87.9082 105.7863 0001710  88.1885 271.9443 13.18686351 83465,13.18686351,0.000171,LEO
